[{"OBJECT_NAME":"STARLINK-30041","OBJECT_ID":"2023-119M","EPOCH":"2026-03-09T22:00:01.999584","MEAN_MOTION":15.15940564,"ECCENTRICITY":0.00012576,"INCLINATION":43.0013,"RA_OF_ASC_NODE":79.6987,"ARG_OF_PERICENTER":273.3411,"MEAN_ANOMALY":241.7822,"EPHEMERIS_TYPE":0,"CLASSIFICATION_TYPE":"U","NORAD_CAT_ID":57613,"ELEMENT_SET_NO":999,"REV_AT_EPOCH":562,"BSTAR":0.06109031,"MEAN_MOTION_DOT":0.01292259,"MEAN_MOTION_DDOT":0},{"OBJECT_NAME":"NASBSAT-2","OBJECT_ID":"2025-313AP","EPOCH":"2026-03-09T21:29:44.393280","MEAN_MOTION":15.22323671,"ECCENTRICITY":0.00101247,"INCLINATION":97.3984,"RA_OF_ASC_NODE":145.2202,"ARG_OF_PERICENTER":356.9966,"MEAN_ANOMALY":3.1208,"EPHEMERIS_TYPE":0,"CLASSIFICATION_TYPE":"U","NORAD_CAT_ID":67285,"ELEMENT_SET_NO":999,"REV_AT_EPOCH":1085,"BSTAR":0.00041175277,"MEAN_MOTION_DOT":9.438e-5,"MEAN_MOTION_DDOT":0}]
